[{"OBJECT_NAME":"CARTOSAT-2C","OBJECT_ID":"2016-040A","EPOCH":"2026-03-09T22:26:22.952832","MEAN_MOTION":15.19225576,"ECCENTRICITY":0.00104304,"INCLINATION":97.4605,"RA_OF_ASC_NODE":130.2157,"ARG_OF_PERICENTER":119.7256,"MEAN_ANOMALY":240.5018,"EPHEMERIS_TYPE":0,"CLASSIFICATION_TYPE":"U","NORAD_CAT_ID":41599,"ELEMENT_SET_NO":999,"REV_AT_EPOCH":53864,"BSTAR":0.0002054492,"MEAN_MOTION_DOT":4.264e-5,"MEAN_MOTION_DDOT":0},{"OBJECT_NAME":"CONNECTA IOT-11","OBJECT_ID":"2025-135AF","EPOCH":"2026-03-09T19:22:47.918784","MEAN_MOTION":15.20956963,"ECCENTRICITY":0.0001643,"INCLINATION":97.4588,"RA_OF_ASC_NODE":185.0556,"ARG_OF_PERICENTER":46.4014,"MEAN_ANOMALY":313.7358,"EPHEMERIS_TYPE":0,"CLASSIFICATION_TYPE":"U","NORAD_CAT_ID":64557,"ELEMENT_SET_NO":999,"REV_AT_EPOCH":3976,"BSTAR":0.00025659411,"MEAN_MOTION_DOT":5.614e-5,"MEAN_MOTION_DDOT":0}]
